SUOMI NPP
1 37849U 26102.29474537  6.60000-7 5.24772-5 0 0                     
2 37849  98.7910  43.6376 0002358 128.6513 231.4874 14.19503004      
NOAA 20 (JPSS-1)
1 43013U 26102.16777778  5.40000-7 4.67171-5 0 0                     
2 43013  98.7730  42.2304 0002144  92.2068 267.9354 14.19545030      
NOAA 21 (JPSS-2)
1 54234U 26102.27259259  2.90000-7 3.45023-5 0 0                     
2 54234  98.7592  42.1619 0002426  47.6293 312.5089 14.19561190      
NOAA 18
1 28654U 26102.23074074  2.20000-7 3.50218-5 0 0                     
2 28654  98.8118 182.8613 0013795 342.7785  17.2918 14.13717878      
NOAA 19
1 33591U 26102.21791667  1.50000-7 3.19159-5 0 0                     
2 33591  98.9551 173.0354 0013246 213.1155 146.9189 14.13463594      
