[{"OBJECT_NAME":"NOAA 18","OBJECT_ID":"2005-018A","EPOCH":"2026-04-12T05:32:16.526112","MEAN_MOTION":14.13717878,"ECCENTRICITY":0.00137956,"INCLINATION":98.8118,"RA_OF_ASC_NODE":182.8613,"ARG_OF_PERICENTER":342.7785,"MEAN_ANOMALY":17.2918,"EPHEMERIS_TYPE":0,"CLASSIFICATION_TYPE":"U","NORAD_CAT_ID":28654,"ELEMENT_SET_NO":999,"REV_AT_EPOCH":7699,"BSTAR":3.5021816e-5,"MEAN_MOTION_DOT":2.2e-7,"MEAN_MOTION_DDOT":0},{"OBJECT_NAME":"NOAA 19","OBJECT_ID":"2009-005A","EPOCH":"2026-04-12T05:13:48.867744","MEAN_MOTION":14.13463594,"ECCENTRICITY":0.00132462,"INCLINATION":98.9551,"RA_OF_ASC_NODE":173.0354,"ARG_OF_PERICENTER":213.1155,"MEAN_ANOMALY":146.9189,"EPHEMERIS_TYPE":0,"CLASSIFICATION_TYPE":"U","NORAD_CAT_ID":33591,"ELEMENT_SET_NO":999,"REV_AT_EPOCH":88516,"BSTAR":3.1915943e-5,"MEAN_MOTION_DOT":1.5e-7,"MEAN_MOTION_DDOT":0},{"OBJECT_NAME":"SUOMI NPP","OBJECT_ID":"2011-061A","EPOCH":"2026-04-12T07:04:26.696352","MEAN_MOTION":14.19503004,"ECCENTRICITY":0.00023589,"INCLINATION":98.791,"RA_OF_ASC_NODE":43.6376,"ARG_OF_PERICENTER":128.6513,"MEAN_ANOMALY":231.4874,"EPHEMERIS_TYPE":0,"CLASSIFICATION_TYPE":"U","NORAD_CAT_ID":37849,"ELEMENT_SET_NO":999,"REV_AT_EPOCH":74909,"BSTAR":5.2477174e-5,"MEAN_MOTION_DOT":6.6e-7,"MEAN_MOTION_DDOT":0},{"OBJECT_NAME":"NOAA 20 (JPSS-1)","OBJECT_ID":"2017-073A","EPOCH":"2026-04-12T04:01:36.312960","MEAN_MOTION":14.1954503,"ECCENTRICITY":0.00021441,"INCLINATION":98.773,"RA_OF_ASC_NODE":42.2304,"ARG_OF_PERICENTER":92.2068,"MEAN_ANOMALY":267.9354,"EPHEMERIS_TYPE":0,"CLASSIFICATION_TYPE":"U","NORAD_CAT_ID":43013,"ELEMENT_SET_NO":999,"REV_AT_EPOCH":43510,"BSTAR":4.6717129e-5,"MEAN_MOTION_DOT":5.4e-7,"MEAN_MOTION_DDOT":0},{"OBJECT_NAME":"NOAA 21 (JPSS-2)","OBJECT_ID":"2022-150A","EPOCH":"2026-04-12T06:32:32.177760","MEAN_MOTION":14.1956119,"ECCENTRICITY":0.00024265,"INCLINATION":98.7592,"RA_OF_ASC_NODE":42.1619,"ARG_OF_PERICENTER":47.6293,"MEAN_ANOMALY":312.5089,"EPHEMERIS_TYPE":0,"CLASSIFICATION_TYPE":"U","NORAD_CAT_ID":54234,"ELEMENT_SET_NO":999,"REV_AT_EPOCH":17719,"BSTAR":3.4502252e-5,"MEAN_MOTION_DOT":2.9e-7,"MEAN_MOTION_DDOT":0}]
